{"id":"19548","noradId":"19548","name":"TDRS 3","line1":"1 19548U 88091B   26165.39383247 -.00000299  00000+0  00000+0 0  9991","line2":"2 19548  12.6041 341.0208 0038401 355.9953  18.6236  1.00274022125367","kind":"satellite","owner":"United States","country":"United States","countryCode":"US","objectType":"PAYLOAD","intlDesignator":"1988-091B","launchDate":"1988-09-29","rcs":"LARGE","rcsM2":38.9782,"periodMinutes":1436.06,"inclinationDeg":12.6,"apogeeKm":35948,"perigeeKm":35624,"source":"offline","sourceUrl":"https://celestrak.org/NORAD/elements/gp.php?GROUP=geo&FORMAT=tle","tleEpochUtc":"2026-06-14T09:27:07.125Z","orbitClass":"GEO"},{"id":"20253","noradId":"20253","name":"FLTSATCOM 8 (USA 46)","line1":"1 20253U 89077A   26165.63171862 -.00000369  00000+0  00000+0 0  9994","line2":"2 20253  12.4225 351.1808 0004510  53.9461 210.8561  1.00278810260530","kind":"satellite","owner":"United States","country":"United States","countryCode":"US","objectType":"PAYLOAD","intlDesignator":"1989-077A","launchDate":"1989-09-25","rcs":"LARGE","rcsM2":32.5418,"periodMinutes":1435.99,"inclinationDeg":12.42,"apogeeKm":35804,"perigeeKm":35765,"source":"offline","sourceUrl":"https://celestrak.org/NORAD/elements/gp.php?GROUP=geo&FORMAT=tle","tleEpochUtc":"2026-06-14T15:09:40.488Z","orbitClass":"GEO"},{"id":"20776","noradId":"20776","name":"SKYNET 4C","line1":"1 20776U 90079A   26162.20198485  .00000132  00000+0  00000+0 0  9995","line2":"2 20776  13.3423 349.8525 0002401  96.2300 279.5546  1.00274124130837","kind":"satellite","owner":"United Kingdom","country":"United Kingdom","countryCode":"UK","objectType":"PAYLOAD","intlDesignator":"1990-079A","launchDate":"1990-08-30","rcs":"LARGE","rcsM2":11.1055,"periodMinutes":1436.06,"inclinationDeg":13.34,"apogeeKm":35796,"perigeeKm":35776,"source":"offline","sourceUrl":"https://celestrak.org/NORAD/elements/gp.php?GROUP=geo&FORMAT=tle","tleEpochUtc":"2026-06-11T04:50:51.491Z","orbitClass":"GEO"},{"id":"21639","noradId":"21639","name":"TDRS 5","line1":"1 21639U 91054B   26165.63363750  .00000081  00000+0  00000+0 0  9990","line2":"2 21639  14.0716 353.7982 0006429 274.6959  54.8494  1.00273079127689","kind":"satellite","owner":"United States","country":"United States","countryCode":"US","objectType":"PAYLOAD","intlDesignator":"1991-054B","launchDate":"1991-08-02","rcs":"LARGE","rcsM2":20.8608,"periodMinutes":1436.09,"inclinationDeg":14.07,"apogeeKm":35813,"perigeeKm":35759,"source":"offline","sourceUrl":"https://celestrak.org/NORAD/elements/gp.php?GROUP=geo&FORMAT=tle","tleEpochUtc":"2026-06-14T15:12:26.280Z","orbitClass":"GEO"},{"id":"22314","noradId":"22314","name":"TDRS 6","line1":"1 22314U 93003B   26165.39443913 -.00000298  00000+0  00000+0 0  9991","line2":"2 22314  14.1828 357.0810 0007806 177.9743 183.8349  1.00272404122383","kind":"satellite","owner":"United States","country":"United States","countryCode":"US","objectType":"PAYLOAD","intlDesignator":"1993-003B","launchDate":"1993-01-13","rcs":"LARGE","rcsM2":28.6701,"periodMinutes":1436.08,"inclinationDeg":14.18,"apogeeKm":35819,"perigeeKm":35754,"source":"offline","sourceUrl":"https://celestrak.org/NORAD/elements/gp.php?GROUP=geo&FORMAT=tle","tleEpochUtc":"2026-06-14T09:27:59.540Z","orbitClass":"GEO"},{"id":"22787","noradId":"22787","name":"UFO 2 (USA 95)","line1":"1 22787U 93056A   26165.19534000  .00000124  00000+0  00000+0 0  9996","line2":"2 22787  11.8938   3.5731 0005980   7.7846 350.1103  1.00275298118514","kind":"satellite","owner":"United States","country":"United States","countryCode":"US","objectType":"PAYLOAD","intlDesignator":"1993-056A","launchDate":"1993-09-03","rcs":"SMALL","rcsM2":0.003,"periodMinutes":1436.06,"inclinationDeg":11.89,"apogeeKm":35812,"perigeeKm":35760,"source":"offline","sourceUrl":"https://celestrak.org/NORAD/elements/gp.php?GROUP=geo&FORMAT=tle","tleEpochUtc":"2026-06-14T04:41:17.376Z","orbitClass":"GEO"},{"id":"22988","noradId":"22988","name":"USA 99 (MILSTAR-1 1)","line1":"1 22988U 94009A   26165.26521981 -.00000114  00000+0  00000+0 0  9990","line2":"2 22988  17.6225  27.7366 0001125 216.3461 135.2589  0.98722322 32910","kind":"satellite","owner":"United States","country":"United States","countryCode":"US","objectType":"PAYLOAD","intlDesignator":"1994-009A","launchDate":"1994-02-07","periodMinutes":1458.64,"inclinationDeg":17.62,"apogeeKm":36232,"perigeeKm":36222,"source":"offline","sourceUrl":"https://celestrak.org/NORAD/elements/gp.php?GROUP=geo&FORMAT=tle","tleEpochUtc":"2026-06-14T06:21:54.991Z","orbitClass":"GEO"},{"id":"23467","noradId":"23467","name":"UFO 4 (USA 108)","line1":"1 23467U 95003A   26165.58499939 -.00000024  00000+0  00000+0 0  9990","line2":"2 23467   9.6994  13.2405 0003131  64.2873 208.1229  1.00272150114923","kind":"satellite","owner":"United States","country":"United States","countryCode":"US","objectType":"PAYLOAD","intlDesignator":"1995-003A","launchDate":"1995-01-29","rcs":"LARGE","rcsM2":30.352,"periodMinutes":1436.09,"inclinationDeg":9.7,"apogeeKm":35800,"perigeeKm":35773,"source":"offline","sourceUrl":"https://celestrak.org/NORAD/elements/gp.php?GROUP=geo&FORMAT=tle","tleEpochUtc":"2026-06-14T14:02:23.947Z","orbitClass":"GEO"},{"id":"23613","noradId":"23613","name":"TDRS 7","line1":"1 23613U 95035B   26165.65056000 -.00000239  00000+0  00000+0 0  9992","line2":"2 23613  13.3782 348.2090 0011083  77.9619 159.8846  1.00265131113228","kind":"satellite","owner":"United States","country":"United States","countryCode":"US","objectType":"PAYLOAD","intlDesignator":"1995-035B","launchDate":"1995-07-13","rcs":"LARGE","rcsM2":22.3872,"periodMinutes":1436.19,"inclinationDeg":13.38,"apogeeKm":35835,"perigeeKm":35742,"source":"offline","sourceUrl":"https://celestrak.org/NORAD/elements/gp.php?GROUP=geo&FORMAT=tle","tleEpochUtc":"2026-06-14T15:36:48.384Z","orbitClass":"GEO"},{"id":"23712","noradId":"23712","name":"USA 115 (MILSTAR-1 2)","line1":"1 23712U 95060A   26165.58244846 -.00000190  00000+0  00000+0 0  9995","line2":"2 23712  14.0720   3.7685 0001527 143.5162 230.1918  1.00364609 32869","kind":"satellite","owner":"United States","country":"United States","countryCode":"US","objectType":"PAYLOAD","intlDesignator":"1995-060A","launchDate":"1995-11-06","periodMinutes":1434.77,"inclinationDeg":14.07,"apogeeKm":35767,"perigeeKm":35754,"source":"offline","sourceUrl":"https://celestrak.org/NORAD/elements/gp.php?GROUP=geo&FORMAT=tle","tleEpochUtc":"2026-06-14T13:58:43.546Z","orbitClass":"GEO"},{"id":"23839","noradId":"23839","name":"INMARSAT 3-F1","line1":"1 23839U 96020A   26165.58137213 -.00000137  00000+0  00000+0 0  9992","line2":"2 23839  10.5959  46.6597 0003740  47.5322 285.5643  0.99978992110221","kind":"satellite","owner":"IM","country":"IM","countryCode":"IM","objectType":"PAYLOAD","intlDesignator":"1996-020A","launchDate":"1996-04-03","rcs":"LARGE","rcsM2":1.1784,"periodMinutes":1440.3,"inclinationDeg":10.59,"apogeeKm":35885,"perigeeKm":35853,"source":"offline","sourceUrl":"https://celestrak.org/NORAD/elements/gp.php?GROUP=geo&FORMAT=tle","tleEpochUtc":"2026-06-14T13:57:10.552Z","orbitClass":"GEO"},{"id":"24307","noradId":"24307","name":"INMARSAT 3-F2","line1":"1 24307U 96053A   26165.62512611 -.00000242  00000+0  00000+0 0  9990","line2":"2 24307   9.8515  53.9639 0006744  27.7276 198.1283  1.00003616108898","kind":"satellite","owner":"IM","country":"IM","countryCode":"IM","objectType":"PAYLOAD","intlDesignator":"1996-053A","launchDate":"1996-09-06","rcs":"LARGE","rcsM2":830.0351,"periodMinutes":1439.95,"inclinationDeg":9.85,"apogeeKm":35890,"perigeeKm":35833,"source":"offline","sourceUrl":"https://celestrak.org/NORAD/elements/gp.php?GROUP=geo&FORMAT=tle","tleEpochUtc":"2026-06-14T15:00:10.895Z","orbitClass":"GEO"},{"id":"24674","noradId":"24674","name":"INMARSAT 3-F3","line1":"1 24674U 96070A   26164.80600199  .00000134  00000+0  00000+0 0  9993","line2":"2 24674  10.3113  49.6870 0003435  21.5651 167.0726  0.99980849107871","kind":"satellite","owner":"IM","country":"IM","countryCode":"IM","objectType":"PAYLOAD","intlDesignator":"1996-070A","launchDate":"1996-12-18","rcs":"LARGE","rcsM2":28.1837,"periodMinutes":1440.28,"inclinationDeg":10.31,"apogeeKm":35883,"perigeeKm":35854,"source":"offline","sourceUrl":"https://celestrak.org/NORAD/elements/gp.php?GROUP=geo&FORMAT=tle","tleEpochUtc":"2026-06-13T19:20:38.571Z","orbitClass":"GEO"},{"id":"24936","noradId":"24936","name":"AMC-3","line1":"1 24936U 97050A   26165.59126507  .00000066  00000+0  00000+0 0  9990","line2":"2 24936   8.1580  64.0136 0004026  26.1234 266.5637  0.99061054 52408","kind":"satellite","owner":"SES","country":"SES","countryCode":"SES","objectType":"PAYLOAD","intlDesignator":"1997-050A","launchDate":"1997-09-04","rcs":"LARGE","rcsM2":8.3589,"periodMinutes":1453.66,"inclinationDeg":8.16,"apogeeKm":36147,"perigeeKm":36112,"source":"offline","sourceUrl":"https://celestrak.org/NORAD/elements/gp.php?GROUP=geo&FORMAT=tle","tleEpochUtc":"2026-06-14T14:11:25.302Z","orbitClass":"GEO"},{"id":"25019","noradId":"25019","name":"USA 134","line1":"1 25019U 97065A   26165.58833427 -.00000066  00000+0  00000+0 0  9995","line2":"2 25019  12.7811  21.7426 0003324 335.5639   5.1245  1.00269108 32927","kind":"satellite","owner":"United States","country":"United States","countryCode":"US","objectType":"PAYLOAD","intlDesignator":"1997-065A","launchDate":"1997-10-25","periodMinutes":1436.13,"inclinationDeg":12.78,"apogeeKm":35801,"perigeeKm":35773,"source":"offline","sourceUrl":"https://celestrak.org/NORAD/elements/gp.php?GROUP=geo&FORMAT=tle","tleEpochUtc":"2026-06-14T14:07:12.080Z","orbitClass":"GEO"},{"id":"25153","noradId":"25153","name":"INMARSAT 3-F5","line1":"1 25153U 98006B   26165.10765750 -.00000290  00000+0  00000+0 0  9990","line2":"2 25153   9.6864  53.2900 0004410  26.4623 167.4264  1.00268796103869","kind":"satellite","owner":"IM","country":"IM","countryCode":"IM","objectType":"PAYLOAD","intlDesignator":"1998-006B","launchDate":"1998-02-04","rcs":"LARGE","rcsM2":14.5,"periodMinutes":1436.13,"inclinationDeg":9.68,"apogeeKm":35806,"perigeeKm":35769,"source":"offline","sourceUrl":"https://celestrak.org/NORAD/elements/gp.php?GROUP=geo&FORMAT=tle","tleEpochUtc":"2026-06-14T02:35:01.608Z","orbitClass":"GEO"},{"id":"25924","noradId":"25924","name":"ABS-6","line1":"1 25924U 99053A   26165.62757991  .00000000  00000+0  00000+0 0  9992","line2":"2 25924   0.0316  41.5659 0003552  61.7962 184.4910  1.00269128 97811","kind":"satellite","owner":"ABS","country":"ABS","countryCode":"ABS","objectType":"PAYLOAD","intlDesignator":"1999-053A","launchDate":"1999-09-26","rcs":"LARGE","rcsM2":39.8107,"periodMinutes":1436.13,"inclinationDeg":0.03,"apogeeKm":35802,"perigeeKm":35773,"source":"offline","sourceUrl":"https://celestrak.org/NORAD/elements/gp.php?GROUP=geo&FORMAT=tle","tleEpochUtc":"2026-06-14T15:03:42.904Z","orbitClass":"GEO"},{"id":"25967","noradId":"25967","name":"UFO 10 (USA 146)","line1":"1 25967U 99063A   26165.39903249 -.00000189  00000+0  00000+0 0  9992","line2":"2 25967   9.8460  27.2269 0002050  34.4628 321.7351  1.00271694 97312","kind":"satellite","owner":"United States","country":"United States","countryCode":"US","objectType":"PAYLOAD","intlDesignator":"1999-063A","launchDate":"1999-11-23","rcs":"MEDIUM","rcsM2":0.5186,"periodMinutes":1436.1,"inclinationDeg":9.84,"apogeeKm":35794,"perigeeKm":35779,"source":"offline","sourceUrl":"https://celestrak.org/NORAD/elements/gp.php?GROUP=geo&FORMAT=tle","tleEpochUtc":"2026-06-14T09:34:36.407Z","orbitClass":"GEO"},{"id":"26107","noradId":"26107","name":"ASIASTAR","line1":"1 26107U 00016A   26165.64860793 -.00000335  00000+0  00000+0 0  9996","line2":"2 26107   9.1237  58.1809 0004391  26.2608 157.0171  1.00269907 95899","kind":"satellite","owner":"United States","country":"United States","countryCode":"US","objectType":"PAYLOAD","intlDesignator":"2000-016A","launchDate":"2000-03-21","rcs":"LARGE","rcsM2":25.1188,"periodMinutes":1436.11,"inclinationDeg":9.12,"apogeeKm":35805,"perigeeKm":35768,"source":"offline","sourceUrl":"https://celestrak.org/NORAD/elements/gp.php?GROUP=geo&FORMAT=tle","tleEpochUtc":"2026-06-14T15:33:59.725Z","orbitClass":"GEO"},{"id":"26356","noradId":"26356","name":"USA 149 (DSP 20)","line1":"1 26356U 00024A   26165.39240046  .00000091  00000+0  00000+0 0  9994","line2":"2 26356  13.1685  11.8726 0001873 305.8568 280.8231  1.00273447 32880","kind":"satellite","owner":"United States","country":"United States","countryCode":"US","objectType":"PAYLOAD","intlDesignator":"2000-024A","launchDate":"2000-05-08","periodMinutes":1436.08,"inclinationDeg":13.17,"apogeeKm":35794,"perigeeKm":35779,"source":"offline","sourceUrl":"https://celestrak.org/NORAD/elements/gp.php?GROUP=geo&FORMAT=tle","tleEpochUtc":"2026-06-14T09:25:03.399Z","orbitClass":"GEO"},{"id":"26388","noradId":"26388","name":"TDRS 8","line1":"1 26388U 00034A   26165.63418591 -.00000197  00000+0  00000+0 0  9997","line2":"2 26388  12.6797  31.3448 0004669  17.3378 167.2007  1.00267656 95154","kind":"satellite","owner":"United States","country":"United States","countryCode":"US","objectType":"PAYLOAD","intlDesignator":"2000-034A","launchDate":"2000-06-30","rcs":"LARGE","rcsM2":26.766,"periodMinutes":1436.15,"inclinationDeg":12.68,"apogeeKm":35808,"perigeeKm":35768,"source":"offline","sourceUrl":"https://celestrak.org/NORAD/elements/gp.php?GROUP=geo&FORMAT=tle","tleEpochUtc":"2026-06-14T15:13:13.662Z","orbitClass":"GEO"},{"id":"26554","noradId":"26554","name":"NSS-11","line1":"1 26554U 00059A   26165.55322354  .00000030  00000+0  00000+0 0  9996","line2":"2 26554   2.1198  81.4196 0002794 348.5104 208.0790  1.00270537 41265","kind":"satellite","owner":"SES","country":"SES","countryCode":"SES","objectType":"PAYLOAD","intlDesignator":"2000-059A","launchDate":"2000-10-01","rcs":"LARGE","rcsM2":19.9526,"periodMinutes":1436.13,"inclinationDeg":2.12,"apogeeKm":35799,"perigeeKm":35775,"source":"offline","sourceUrl":"https://celestrak.org/NORAD/elements/gp.php?GROUP=geo&FORMAT=tle","tleEpochUtc":"2026-06-14T13:16:38.513Z","orbitClass":"GEO"},{"id":"26575","noradId":"26575","name":"USA 153","line1":"1 26575U 00065A   26165.66527089 -.00000328  00000+0  00000+0 0  9991","line2":"2 26575  11.6203  35.4433 0002998  47.1332 194.3859  1.00270043 32900","kind":"satellite","owner":"United States","country":"United States","countryCode":"US","objectType":"PAYLOAD","intlDesignator":"2000-065A","launchDate":"2000-10-20","periodMinutes":1436.12,"inclinationDeg":11.62,"apogeeKm":35800,"perigeeKm":35774,"source":"offline","sourceUrl":"https://celestrak.org/NORAD/elements/gp.php?GROUP=geo&FORMAT=tle","tleEpochUtc":"2026-06-14T15:57:59.404Z","orbitClass":"GEO"},{"id":"26580","noradId":"26580","name":"AMC-6","line1":"1 26580U 00067A   26165.59789803  .00000095  00000+0  00000+0 0  9995","line2":"2 26580   0.1459  83.0708 0003438  12.0648 247.9673  1.00272442 93863","kind":"satellite","owner":"SES","country":"SES","countryCode":"SES","objectType":"PAYLOAD","intlDesignator":"2000-067A","launchDate":"2000-10-21","rcs":"LARGE","rcsM2":13.6109,"periodMinutes":1436.09,"inclinationDeg":0.14,"apogeeKm":35801,"perigeeKm":35772,"source":"offline","sourceUrl":"https://celestrak.org/NORAD/elements/gp.php?GROUP=geo&FORMAT=tle","tleEpochUtc":"2026-06-14T14:20:58.389Z","orbitClass":"GEO"},{"id":"26715","noradId":"26715","name":"USA 157 (MILSTAR-2 2)","line1":"1 26715U 01009A   26165.40150147  .00000108  00000+0  00000+0 0  9990","line2":"2 26715  11.5396  19.7820 0039343 177.6123  59.7727  1.00273362 32910","kind":"satellite","owner":"United States","country":"United States","countryCode":"US","objectType":"PAYLOAD","intlDesignator":"2001-009A","launchDate":"2001-02-27","periodMinutes":1436.08,"inclinationDeg":11.54,"apogeeKm":35952,"perigeeKm":35620,"source":"offline","sourceUrl":"https://celestrak.org/NORAD/elements/gp.php?GROUP=geo&FORMAT=tle","tleEpochUtc":"2026-06-14T09:38:09.727Z","orbitClass":"GEO"},{"id":"26900","noradId":"26900","name":"INTELSAT 902 (IS-902)","line1":"1 26900U 01039A   26165.53624534 -.00000281  00000+0  00000+0 0  9992","line2":"2 26900   6.1108  71.8168 0004488   8.0143 325.9476  1.00270945 90661","kind":"satellite","owner":"Commercial GEO","country":"ITSO","countryCode":"ITSO","objectType":"PAYLOAD","intlDesignator":"2001-039A","launchDate":"2001-08-30","rcs":"LARGE","rcsM2":14.1589,"periodMinutes":1436.1,"inclinationDeg":6.11,"apogeeKm":35806,"perigeeKm":35768,"source":"offline","sourceUrl":"https://celestrak.org/NORAD/elements/gp.php?GROUP=geo&FORMAT=tle","tleEpochUtc":"2026-06-14T12:52:11.597Z","orbitClass":"GEO"},{"id":"27168","noradId":"27168","name":"USA 164 (MILSTAR-2 3)","line1":"1 27168U 02001A   26165.26469981  .00000097  00000+0  00000+0 0  9996","line2":"2 27168  11.1761  21.9254 0098956   8.3094 346.6344  1.00276336 32921","kind":"satellite","owner":"United States","country":"United States","countryCode":"US","objectType":"PAYLOAD","intlDesignator":"2002-001A","launchDate":"2002-01-16","periodMinutes":1436.04,"inclinationDeg":11.17,"apogeeKm":36203,"perigeeKm":35368,"source":"offline","sourceUrl":"https://celestrak.org/NORAD/elements/gp.php?GROUP=geo&FORMAT=tle","tleEpochUtc":"2026-06-14T06:21:10.063Z","orbitClass":"GEO"},{"id":"27380","noradId":"27380","name":"INTELSAT 904 (IS-904)","line1":"1 27380U 02007A   26165.16112228 -.00000223  00000+0  00000+0 0  9998","line2":"2 27380   6.9124  69.2201 0006462   4.1571 215.6025  1.00271167 51732","kind":"satellite","owner":"Commercial GEO","country":"ITSO","countryCode":"ITSO","objectType":"PAYLOAD","intlDesignator":"2002-007A","launchDate":"2002-02-23","rcs":"LARGE","rcsM2":23.7928,"periodMinutes":1436.1,"inclinationDeg":6.91,"apogeeKm":35814,"perigeeKm":35759,"source":"offline","sourceUrl":"https://celestrak.org/NORAD/elements/gp.php?GROUP=geo&FORMAT=tle","tleEpochUtc":"2026-06-14T03:52:00.964Z","orbitClass":"GEO"},{"id":"27426","noradId":"27426","name":"DIRECTV 5 (TEMPO 1)","line1":"1 27426U 02023A   26165.58818425 -.00000054  00000+0  00000+0 0  9997","line2":"2 27426   4.8712  75.3418 0003219  22.0501 267.1359  1.00271434 88098","kind":"satellite","owner":"United States","country":"United States","countryCode":"US","objectType":"PAYLOAD","intlDesignator":"2002-023A","launchDate":"2002-05-07","rcs":"LARGE","rcsM2":12.5892,"periodMinutes":1436.1,"inclinationDeg":4.87,"apogeeKm":35800,"perigeeKm":35773,"source":"offline","sourceUrl":"https://celestrak.org/NORAD/elements/gp.php?GROUP=geo&FORMAT=tle","tleEpochUtc":"2026-06-14T14:06:59.119Z","orbitClass":"GEO"},{"id":"27438","noradId":"27438","name":"INTELSAT 905 (IS-905)","line1":"1 27438U 02027A   26165.59827877  .00000095  00000+0  00000+0 0  9990","line2":"2 27438   6.7471  69.8304 0003797  20.9273 250.3045  1.00272386 51330","kind":"satellite","owner":"Commercial GEO","country":"ITSO","countryCode":"ITSO","objectType":"PAYLOAD","intlDesignator":"2002-027A","launchDate":"2002-06-05","rcs":"LARGE","rcsM2":15.8865,"periodMinutes":1436.09,"inclinationDeg":6.74,"apogeeKm":35803,"perigeeKm":35770,"source":"offline","sourceUrl":"https://celestrak.org/NORAD/elements/gp.php?GROUP=geo&FORMAT=tle","tleEpochUtc":"2026-06-14T14:21:31.285Z","orbitClass":"GEO"},{"id":"27445","noradId":"27445","name":"GALAXY 3C (G-3C)","line1":"1 27445U 02030A   26165.59863113 -.00000149  00000+0  00000+0 0  9996","line2":"2 27445   3.7249  78.0091 0001520  34.3645 271.1797  1.00271083 46463","kind":"satellite","owner":"United States","country":"United States","countryCode":"US","objectType":"PAYLOAD","intlDesignator":"2002-030A","launchDate":"2002-06-15","rcs":"LARGE","rcsM2":33.4954,"periodMinutes":1436.1,"inclinationDeg":3.72,"apogeeKm":35793,"perigeeKm":35780,"source":"offline","sourceUrl":"https://celestrak.org/NORAD/elements/gp.php?GROUP=geo&FORMAT=tle","tleEpochUtc":"2026-06-14T14:22:01.729Z","orbitClass":"GEO"}